[{"OBJECT_NAME":"ICEYE-X4","OBJECT_ID":"2019-038D","EPOCH":"2026-03-09T23:53:58.416000","MEAN_MOTION":15.26985132,"ECCENTRICITY":0.00122769,"INCLINATION":97.8888,"RA_OF_ASC_NODE":96.1923,"ARG_OF_PERICENTER":293.9914,"MEAN_ANOMALY":66.0038,"EPHEMERIS_TYPE":0,"CLASSIFICATION_TYPE":"U","NORAD_CAT_ID":44390,"ELEMENT_SET_NO":999,"REV_AT_EPOCH":36665,"BSTAR":0.00049915294,"MEAN_MOTION_DOT":0.00013179,"MEAN_MOTION_DDOT":0},{"OBJECT_NAME":"STARLINK-32086","OBJECT_ID":"2024-086X","EPOCH":"2026-03-09T22:28:53.017536","MEAN_MOTION":15.27571079,"ECCENTRICITY":0.00013712,"INCLINATION":43.0037,"RA_OF_ASC_NODE":58.1821,"ARG_OF_PERICENTER":273.8088,"MEAN_ANOMALY":86.2607,"EPHEMERIS_TYPE":0,"CLASSIFICATION_TYPE":"U","NORAD_CAT_ID":59703,"ELEMENT_SET_NO":999,"REV_AT_EPOCH":10415,"BSTAR":7.6627018e-5,"MEAN_MOTION_DOT":1.846e-5,"MEAN_MOTION_DDOT":0}]
